NORAD_CAT_ID,OBJECT_NAME,OBJECT_TYPE,EPOCH,MEAN_MOTION,ECCENTRICITY,INCLINATION,RA_OF_ASC_NODE,ARG_OF_PERICENTER,MEAN_ANOMALY,BSTAR,MEAN_MOTION_DOT,MEAN_MOTION_DDOT,TLE_LINE0,TLE_LINE1,TLE_LINE2,SEMIMAJOR_AXIS,PERIOD,APOGEE,PERIGEE,DECAYED
51982.0,STARLINK-3650,PAYLOAD,2023-11-27 18:15:07,15.08837419,0.0001437,53.2165,178.2876,99.2899,260.8256,-0.0001966,-3.415e-05,0.0,0 STARLINK-3650,1 51982U 22025AC  23331.76050564 -.00003415  00000-0 -19660-3 0  9991,2 51982  53.2165 178.2876 0001437  99.2899 260.8256 15.08837419 96414,6917.888,95.438,540.747,538.759,0.0
51982.0,STARLINK-3650,PAYLOAD,2023-11-27 21:25:55,15.08815718,0.0001594,53.2164,177.6927,96.165,263.9523,0.00052547,8.079e-05,0.0,0 STARLINK-3650,1 51982U 22025AC  23331.89299886  .00008079  00000-0  52547-3 0  9997,2 51982  53.2164 177.6927 0001594  96.1650 263.9523 15.08815718 95337,6917.955,95.439,540.922,538.717,0.0
51982.0,STARLINK-3650,PAYLOAD,2023-11-28 19:41:18,15.08841734,0.0001386,53.2169,173.5293,79.1742,280.9406,0.00011825,1.595e-05,0.0,0 STARLINK-3650,1 51982U 22025AC  23332.82034812  .00001595  00000-0  11825-3 0  9997,2 51982  53.2169 173.5293 0001386  79.1742 280.9406 15.08841734 96578,6917.875,95.437,540.699,538.781,0.0
51982.0,STARLINK-3650,PAYLOAD,2023-11-28 21:16:41,15.0884308,0.0001422,53.2173,173.2322,79.7435,280.3718,0.00012844,1.757e-05,0.0,0 STARLINK-3650,1 51982U 22025AC  23332.88658688  .00001757  00000-0  12844-3 0  9998,2 51982  53.2173 173.2322 0001422  79.7435 280.3718 15.08843080 95484,6917.871,95.437,540.72,538.752,0.0
51982.0,STARLINK-3650,PAYLOAD,2023-11-28 22:52:04,15.0884588,0.0001389,53.2172,172.9344,82.4223,277.6927,0.00015077,2.113e-05,0.0,0 STARLINK-3650,1 51982U 22025AC  23332.95282438  .00002113  00000-0  15077-3 0  9990,2 51982  53.2172 172.9344 0001389  82.4223 277.6927 15.08845880 95493,6917.862,95.437,540.688,538.767,0.0
51982.0,STARLINK-3650,PAYLOAD,2023-11-29 19:32:05,15.08838552,0.000114,53.2177,169.062,98.7161,261.396,6.9189e-05,8.13e-06,0.0,0 STARLINK-3650,1 51982U 22025AC  23333.81395226  .00000813  00000-0  69189-4 0  9995,2 51982  53.2177 169.0620 0001140  98.7161 261.3960 15.08838552 96720,6917.885,95.438,540.538,538.961,0.0
51982.0,STARLINK-3650,PAYLOAD,2023-11-30 19:22:52,15.0884716,0.0001309,53.2172,164.6013,95.5538,264.5603,6.3852e-05,7.29e-06,0.0,0 STARLINK-3650,1 51982U 22025AC  23334.80754747  .00000729  00000-0  63852-4 0  9999,2 51982  53.2172 164.6013 0001309  95.5538 264.5603 15.08847160 96872,6917.859,95.437,540.629,538.818,0.0
51982.0,STARLINK-3650,PAYLOAD,2023-12-01 17:38:16,15.08842312,0.0001364,53.217,160.4467,90.4241,269.6907,9.9842e-05,1.302e-05,0.0,0 STARLINK-3650,1 51982U 22025AC  23335.73490997  .00001302  00000-0  99842-4 0  9992,2 51982  53.2170 160.4467 0001364  90.4241 269.6907 15.08842312 97017,6917.873,95.437,540.682,538.795,0.0
51982.0,STARLINK-3650,PAYLOAD,2023-12-02 12:42:53,15.08849485,0.0001434,53.2174,156.878,98.1652,261.9503,0.00015131,2.122e-05,0.0,0 STARLINK-3650,1 51982U 22025AC  23336.52978246  .00002122  00000-0  15131-3 0  9997,2 51982  53.2174 156.8780 0001434  98.1652 261.9503 15.08849485 96033,6917.851,95.437,540.708,538.724,0.0
51982.0,STARLINK-3650,PAYLOAD,2023-12-02 19:04:25,15.08849483,0.0001434,53.2165,155.6889,97.8662,262.2493,0.00015205,2.133e-05,0.0,0 STARLINK-3650,1 51982U 22025AC  23336.79474322  .00002133  00000-0  15205-3 0  9996,2 51982  53.2165 155.6889 0001434  97.8662 262.2493 15.08849483 97173,6917.851,95.437,540.708,538.724,0.0
51982.0,STARLINK-3650,PAYLOAD,2023-12-03 12:33:41,15.08831455,0.000154,53.2164,152.4169,104.2701,255.8462,-9.639e-05,-1.821e-05,0.0,0 STARLINK-3650,1 51982U 22025AC  23337.52339368 -.00001821  00000-0 -96390-4 0  9998,2 51982  53.2164 152.4169 0001540 104.2701 255.8462 15.08831455 97289,6917.907,95.438,540.837,538.706,0.0
51982.0,STARLINK-3650,PAYLOAD,2023-12-03 18:55:14,15.08825528,0.0001377,53.2155,151.2251,100.4919,259.6228,-0.00018627,-3.25e-05,0.0,0 STARLINK-3650,1 51982U 22025AC  23337.78835793 -.00003250  00000-0 -18627-3 0  9993,2 51982  53.2155 151.2251 0001377 100.4919 259.6228 15.08825528 97326,6917.925,95.438,540.742,538.837,0.0
51982.0,STARLINK-3650,PAYLOAD,2023-12-04 20:21:25,15.0883161,0.0001447,53.2168,146.465,109.7115,250.4033,-5.7403e-05,-1.201e-05,0.0,0 STARLINK-3650,1 51982U 22025AC  23338.84820727 -.00001201  00000-0 -57403-4 0  9992,2 51982  53.2168 146.4650 0001447 109.7115 250.4033 15.08831610 96384,6917.906,95.438,540.772,538.77,0.0
51982.0,STARLINK-3650,PAYLOAD,2023-12-05 12:15:16,15.08826896,0.0001339,53.2167,143.4931,94.5758,265.5388,0.00017177,2.446e-05,0.0,0 STARLINK-3650,1 51982U 22025AC  23339.51061101  .00002446  00000-0  17177-3 0  9993,2 51982  53.2167 143.4931 0001339  94.5758 265.5388 15.08826896 96487,6917.92,95.438,540.712,538.859,0.0
51982.0,STARLINK-3650,PAYLOAD,2023-12-05 20:12:12,15.08830909,0.0001375,53.2168,142.0058,98.7461,261.3687,0.00019097,2.752e-05,0.0,0 STARLINK-3650,1 51982U 22025AC  23339.84181057  .00002752  00000-0  19097-3 0  9995,2 51982  53.2168 142.0058 0001375  98.7461 261.3687 15.08830909 96532,6917.908,95.438,540.724,538.822,0.0
51982.0,STARLINK-3650,PAYLOAD,2023-12-06 10:30:39,15.08844066,0.0001325,53.2169,139.3309,95.5385,264.5759,0.00010546,1.391e-05,0.0,0 STARLINK-3650,1 51982U 22025AC  23340.43796238  .00001391  00000-0  10546-3 0  9993,2 51982  53.2169 139.3309 0001325  95.5385 264.5759 15.08844066 97722,6917.868,95.437,540.65,538.816,0.0
51982.0,STARLINK-3650,PAYLOAD,2023-12-06 20:02:58,15.08848095,0.0001424,53.2151,137.5463,101.119,258.9962,0.00018438,2.648e-05,0.0,0 STARLINK-3650,1 51982U 22025AC  23340.83540159  .00002648  00000-0  18438-3 0  9990,2 51982  53.2151 137.5463 0001424 101.1190 258.9962 15.08848095 96685,6917.856,95.437,540.706,538.736,0.0
51982.0,STARLINK-3650,PAYLOAD,2023-12-07 10:21:26,15.08848004,0.0001253,53.2148,134.8719,97.9495,262.1639,8.8112e-05,1.115e-05,0.0,0 STARLINK-3650,1 51982U 22025AC  23341.43156177  .00001115  00000-0  88112-4 0  9995,2 51982  53.2148 134.8719 0001253  97.9495 262.1639 15.08848004 96773,6917.856,95.437,540.588,538.854,0.0
51982.0,STARLINK-3650,PAYLOAD,2023-12-07 19:53:45,15.08849037,0.0001248,53.2148,133.0877,97.58,262.5334,8.4283e-05,1.054e-05,0.0,0 STARLINK-3650,1 51982U 22025AC  23341.82899874  .00001054  00000-0  84283-4 0  9993,2 51982  53.2148 133.0877 0001248  97.5800 262.5334 15.08849037 97931,6917.853,95.437,540.581,538.854,0.0
51982.0,STARLINK-3650,PAYLOAD,2023-12-08 13:22:59,15.08848223,0.0001651,53.215,129.8139,109.4054,250.7116,1.6349e-05,-2.8e-07,0.0,0 STARLINK-3650,1 51982U 22025AC  23342.55763656 -.00000028  00000-0  16349-4 0  9991,2 51982  53.2150 129.8139 0001651 109.4054 250.7116 15.08848223 96943,6917.855,95.437,540.862,538.578,0.0
51982.0,STARLINK-3650,PAYLOAD,2023-12-09 10:03:00,15.08842353,0.000143,53.2155,125.9498,106.4793,253.6356,9.9608e-06,-1.29e-06,0.0,0 STARLINK-3650,1 51982U 22025AC  23343.41875694 -.00000129  00000-0  99608-5 0  9995,2 51982  53.2155 125.9498 0001430 106.4793 253.6356 15.08842353 98178,6917.873,95.437,540.727,538.749,0.0
51982.0,STARLINK-3650,PAYLOAD,2023-12-09 13:13:46,15.0884172,0.0001438,53.2156,125.3548,107.163,252.952,4.8145e-07,-2.8e-06,0.0,0 STARLINK-3650,1 51982U 22025AC  23343.55123710 -.00000280  00000-0  48145-6 0  9994,2 51982  53.2156 125.3548 0001438 107.1630 252.9520 15.08841720 97097,6917.875,95.437,540.735,538.745,0.0
51982.0,STARLINK-3650,PAYLOAD,2023-12-09 19:35:19,15.08842615,0.0001425,53.2158,124.1653,108.6194,251.4953,5.2407e-06,-2.05e-06,0.0,0 STARLINK-3650,1 51982U 22025AC  23343.81619572 -.00000205  00000-0  52407-5 0  9991,2 51982  53.2158 124.1653 0001425 108.6194 251.4953 15.08842615 97133,6917.872,95.437,540.723,538.752,0.0
51982.0,STARLINK-3650,PAYLOAD,2023-12-10 14:39:57,15.08839283,0.0001424,53.2162,120.5963,110.0627,250.0519,3.0577e-05,1.99e-06,0.0,0 STARLINK-3650,1 51982U 22025AC  23344.61107720  .00000199  00000-0  30577-4 0  9991,2 51982  53.2162 120.5963 0001424 110.0627 250.0519 15.08839283 97252,6917.883,95.438,540.733,538.762,0.0
51982.0,STARLINK-3650,PAYLOAD,2023-12-10 16:15:20,15.08840359,0.0001396,53.2164,120.2989,107.048,253.0665,3.6304e-05,2.9e-06,0.0,0 STARLINK-3650,1 51982U 22025AC  23344.67731646  .00000290  00000-0  36304-4 0  9993,2 51982  53.2164 120.2989 0001396 107.0480 253.0665 15.08840359 98364,6917.879,95.438,540.71,538.779,0.0
51982.0,STARLINK-3650,PAYLOAD,2023-12-11 14:30:44,15.08834836,0.000139,53.2172,116.1354,98.631,261.484,1.2256e-05,-9.3e-07,0.0,0 STARLINK-3650,1 51982U 22025AC  23345.60468300 -.00000093  00000-0  12256-4 0  9993,2 51982  53.2172 116.1354 0001390  98.6310 261.4840 15.08834836 97409,6917.896,95.438,540.723,538.8,0.0
51982.0,STARLINK-3650,PAYLOAD,2023-12-12 14:21:31,15.08839283,0.0001467,53.2179,111.6803,105.1081,255.0073,4.8305e-05,4.81e-06,0.0,0 STARLINK-3650,1 51982U 22025AC  23346.59828198  .00000481  00000-0  48305-4 0  9991,2 51982  53.2179 111.6803 0001467 105.1081 255.0073 15.08839283 97553,6917.883,95.438,540.762,538.733,0.0
51982.0,STARLINK-3650,PAYLOAD,2023-12-12 15:56:54,15.08841148,0.000136,53.2176,111.3811,89.0027,271.1121,5.9212e-05,6.55e-06,0.0,0 STARLINK-3650,1 51982U 22025AC  23346.66452104  .00000655  00000-0  59212-4 0  9991,2 51982  53.2176 111.3811 0001360  89.0027 271.1121 15.08841148 98667,6917.877,95.437,540.683,538.801,0.0
51982.0,STARLINK-3650,PAYLOAD,2023-12-13 14:12:18,15.08843959,0.0001407,53.2173,107.2149,73.7596,286.3551,0.00010846,1.439e-05,0.0,0 STARLINK-3650,1 51982U 22025AC  23347.59187776  .00001439  00000-0  10846-3 0  9994,2 51982  53.2173 107.2149 0001407  73.7596 286.3551 15.08843959 97706,6917.868,95.437,540.707,538.76,0.0
51982.0,STARLINK-3650,PAYLOAD,2023-12-13 15:47:41,15.08846162,0.0001416,53.2177,106.92,76.7841,283.3309,0.00012497,1.702e-05,0.0,0 STARLINK-3650,1 51982U 22025AC  23347.65811604  .00001702  00000-0  12497-3 0  9992,2 51982  53.2177 106.9200 0001416  76.7841 283.3309 15.08846162 97718,6917.862,95.437,540.706,538.747,0.0
